STARLINK-3808           
1 52366U 22045AM  25075.48193709 -.00004959  00000+0 -29377-3 0  9994
2 52366  53.2184 357.1757 0001411  89.8811 270.2343 15.08828573161842
STARLINK-3817           
1 52367U 22045AN  25075.48931289 -.00002530  00000+0 -14102-3 0  9991
2 52367  53.2209 357.1445 0001612  80.6799 279.4376 15.08819133161841
STARLINK-3834           
1 52368U 22045AP  25075.47090239  .00005214  00000+0  34528-3 0  9996
2 52368  53.2176 357.2265 0001925  69.7335 290.3864 15.08859641161838
STARLINK-3841           
1 52369U 22045AQ  25075.02200098 -.00006757  00000+0 -40768-3 0  9992
2 52369  53.2199 359.2419 0001688 107.2969 252.8208 15.08767726161774
STARLINK-3827           
1 52370U 22045AR  25075.74418646  .00001557  00000+0  11591-3 0  9996
2 52370  53.2209 356.0118 0001234  80.8099 279.3032 15.08831605161885
STARLINK-3798           
1 52371U 22045AS  25075.74050859  .00000431  00000+0  45169-4 0  9994
2 52371  53.2191 356.0279 0001535  84.6727 275.4440 15.08827695161871
STARLINK-3796           
1 52372U 22045AT  25075.79842108  .00004624  00000+0  30850-3 0  9994
2 52372  53.2186 355.7585 0002108  96.1265 263.9967 15.08829290161884
STARLINK-3550           
1 52373U 22045AU  25075.05874331  .00000517  00000+0  50559-4 0  9993
2 52373  53.2186 359.0801 0001521  84.4492 275.6674 15.08839838161786
STARLINK-3762           
1 52374U 22045AV  25075.79103463  .00007256  00000+0  47311-3 0  9994
2 52374  53.2177 355.7883 0001369  89.2792 270.8357 15.08872396161899
STARLINK-3785           
1 52375U 22045AW  25075.06610204  .00000756  00000+0  65624-4 0  9997
2 52375  53.2191 359.0392 0001691 125.5427 234.5723 15.08839215161780
STARLINK-3767           
1 52376U 22045AX  25075.91619322  .00025624  00000+0  16215-2 0  9993
2 52376  53.2178 355.2288 0001257 105.9834 254.1297 15.08856078161915
STARLINK-3805           
1 52377U 22045AY  25075.47460703  .00007392  00000+0  48194-3 0  9996
2 52377  53.2188 357.4338 0001279  97.8336 262.2802 15.08848295161832
STARLINK-3806           
1 52378U 22045AZ  25075.51138584 -.00002117  00000+0 -11497-3 0  9999
2 52378  53.2185 357.0443 0001755  91.4746 268.6447 15.08829218161858
STARLINK-3800           
1 52379U 22045BA  25075.91245772  .00006778  00000+0  44300-3 0  9996
2 52379  53.2198 355.2465 0001951 117.9419 242.1771 15.08884330161916
STARLINK-3793           
1 52380U 22045BB  25075.89135082  .00002684  00000+0  18664-3 0  9993
2 52380  53.2183 345.3710 0001638  75.4580 284.6594 15.08840450162048
STARLINK-3799           
1 52382U 22045BD  25075.50402017 -.00001249  00000+0 -60366-4 0  9993
2 52382  53.2193 357.0866 0001382  78.4400 281.6747 15.08854352161854
STARLINK-3811           
1 52383U 22045BE  25075.06334431  .00002220  00000+0  15752-3 0  9995
2 52383  53.2179 349.0846 0001503  75.6554 284.4605 15.08842303161927
STARLINK-3870           
1 52451U 22049A   25075.81682759  .00000788  00000+0  67600-4 0  9994
2 52451  53.2182 235.6751 0001434 101.4814 258.6339 15.08828033158244
STARLINK-3909           
1 52452U 22049B   25075.62912725  .00000544  00000+0  52296-4 0  9998
2 52452  53.2160 236.3891 0001236  83.3635 276.7497 15.08837051158058
STARLINK-3872           
1 52453U 22049C   25075.74322934  .00000600  00000+0  55801-4 0  9997
2 52453  53.2191 236.0076 0001333  97.8398 262.2745 15.08832407158235
STARLINK-3888           
1 52454U 22049D   25075.81315057 -.00000465  00000+0 -11156-4 0  9990
2 52454  53.2167 235.6917 0001194  94.2331 265.8797 15.08831578158246
STARLINK-3890           
1 52455U 22049E   25075.60802149  .00000117  00000+0  25466-4 0  9992
2 52455  53.2173 236.6113 0001354  92.7371 267.3776 15.08832215158050
STARLINK-3896           
1 52456U 22049F   25075.60435484 -.00008096  00000+0 -49158-3 0  9996
2 52456  53.2156 236.6248 0001345  93.4727 266.6419 15.08809739158055
STARLINK-3899           
1 52457U 22049G   25075.73217166 -.00007489  00000+0 -45290-3 0  9994
2 52457  53.2169 236.0444 0001235  81.9319 278.1813 15.08843097158230
STARLINK-3898           
1 52458U 22049H   25075.86192685 -.00001238  00000+0 -59722-4 0  9999
2 52458  53.2159 235.4717 0001294  76.0000 284.1136 15.08825462158256
STARLINK-3856           
1 52459U 22049J   25075.78094007  .00004863  00000+0  32338-3 0  9998
2 52459  53.2164 225.8349 0001325  89.2197 270.8946 15.08843122158372
STARLINK-3900           
1 52461U 22049L   25075.71194691  .00007715  00000+0  50259-3 0  9995
2 52461  53.2164 216.1427 0001392  90.1193 269.9958 15.08819192158503
STARLINK-3903           
1 52462U 22049M   25075.57582889 -.00001119  00000+0 -52242-4 0  9999
2 52462  53.2176 226.7681 0001407 108.8397 251.2748 15.08828469158346
STARLINK-3885           
1 52463U 22049N   25075.64202176  .00000307  00000+0  37368-4 0  9994
2 52463  53.2160 216.4581 0001280  86.2600 273.8539 15.08838825158334
STARLINK-3904           
1 52464U 22049P   25075.57854594 -.00001573  00000+0 -80749-4 0  9993
2 52464  53.2157 226.7449 0000944  81.7514 278.3585 15.08839969158340
STARLINK-3863           
1 52465U 22049Q   25075.57209252  .00001528  00000+0  11404-3 0  9998
2 52465  53.2165 216.7726 0001369  82.9814 277.1334 15.08843874158489
STARLINK-3840           
1 52466U 22049R   25075.58334491  .00182052  00000+0  25119-2 0  9993
2 52466  53.1864 191.3311 0007927 308.2194  96.6320 15.56053932  5755
STARLINK-3873           
1 52467U 22049S   25075.57117833 -.00000144  00000+0  90604-5 0  9998
2 52467  53.2172 226.7772 0001213  82.6902 277.4228 15.08837458158187
STARLINK-3864           
1 52468U 22049T   25075.62270316  .00000211  00000+0  31373-4 0  9992
2 52468  53.2177 226.5458 0001436  95.1767 264.9390 15.08832867158198
STARLINK-3828           
1 52469U 22049U   25075.69630252  .00000482  00000+0  48391-4 0  9997
2 52469  53.2186 226.2159 0001510 104.2765 255.8394 15.08840256158360
STARLINK-3859           
1 52470U 22049V   25075.81405719  .00000609  00000+0  56357-4 0  9993
2 52470  53.2180 225.6821 0001530 109.7884 250.3273 15.08839823158385
STARLINK-3862           
1 52471U 22049W   25075.62734251  .00000298  00000+0  36797-4 0  9999
2 52471  53.2178 226.5366 0001478  89.0493 271.0669 15.08836147158198
STARLINK-3881           
1 52472U 22049X   25075.81037803  .00002364  00000+0  16653-3 0  9994
2 52472  53.2162 225.6969 0001290 102.3415 257.7721 15.08844209158385
STARLINK-3879           
1 52473U 22049Y   25075.81770298  .00004807  00000+0  31964-3 0  9993
2 52473  53.2173 225.6675 0001274  92.5038 267.6100 15.08873174158389
STARLINK-3855           
1 52474U 22049Z   25075.56570663  .00000076  00000+0  22848-4 0  9996
2 52474  53.2183 216.8136 0001056  93.6934 266.4179 15.08832276158325
STARLINK-3882           
1 52475U 22049AA  25075.56752936  .00000626  00000+0  57427-4 0  9994
2 52475  53.2177 227.0127 0001244  98.3563 261.7571 15.08835434158189
STARLINK-3835           
1 52476U 22049AB  25075.58412983  .00000083  00000+0  23315-4 0  9998
2 52476  53.2168 216.9545 0001142  95.8437 264.2685 15.08836150159563
STARLINK-3860           
1 52477U 22049AC  25075.56842736  .00000684  00000+0  61046-4 0  9990
2 52477  53.2171 216.7891 0001331  89.6077 270.5068 15.08836774159568
STARLINK-3825           
1 52478U 22049AD  25075.80301653  .00000953  00000+0  77920-4 0  9993
2 52478  53.2175 225.7330 0001170  94.2200 265.8926 15.08841026158387
STARLINK-3878           
1 52479U 22049AE  25075.61994169  .00001050  00000+0  84055-4 0  9999
2 52479  53.2179 216.5609 0001269  92.0819 268.0318 15.08832839159574
STARLINK-3839           
1 52480U 22049AF  25075.79934072 -.00000126  00000+0  10121-4 0  9994
2 52480  53.2166 225.7494 0000537  72.0118 288.0932 15.08838994158383
STARLINK-3813           
1 52482U 22049AH  25075.61257839  .00001015  00000+0  81859-4 0  9999
2 52482  53.2160 216.5855 0001480  99.3806 260.7353 15.08836622158337
STARLINK-3875           
1 52483U 22049AJ  25075.62362558 -.00002854  00000+0 -16134-3 0  9993
2 52483  53.2187 216.5437 0001461  98.0550 262.0608 15.08831520159571
STARLINK-3887           
1 52484U 22049AK  25075.13326475  .00000430  00000+0  45114-4 0  9995
2 52484  53.2180 228.7451 0001403  99.2796 260.8355 15.08834619158124
STARLINK-3913           
1 52485U 22049AL  25075.61626537  .00000671  00000+0  60242-4 0  9997
2 52485  53.2169 216.5740 0001554 107.2237 252.8926 15.08844923158332
STARLINK-3918           
1 52486U 22049AM  25075.58958604 -.00000391  00000+0 -65019-5 0  9996
2 52486  53.2166 226.6961 0001140  88.4195 271.6928 15.08833659158190
STARLINK-3902           
1 52487U 22049AN  25075.62731668  .00000579  00000+0  54424-4 0  9994
2 52487  53.2175 216.6308 0000605  88.8931 271.2131 15.08838865159571
STARLINK-3892           
1 52488U 22049AP  25075.85086195  .00003931  00000+0  26496-3 0  9990
2 52488  53.2162 225.5217 0001395  93.5891 266.5261 15.08837819158399
STARLINK-3923           
1 52489U 22049AQ  25075.12957847  .00001564  00000+0  11635-3 0  9991
2 52489  53.2167 228.7603 0001236  99.7353 260.3779 15.08836461158123
STARLINK-3914           
1 52490U 22049AR  25075.66778034  .00000631  00000+0  57728-4 0  9999
2 52490  53.2165 216.3350 0001370  96.9025 263.2123 15.08838908158504
STARLINK-3908           
1 52491U 22049AS  25075.60890003  .00000209  00000+0  31214-4 0  9998
2 52491  53.2170 216.5989 0001419 108.9122 251.2024 15.08833105158339
STARLINK-3916           
1 52492U 22049AT  25075.52794422  .00000049  00000+0  21190-4 0  9992
2 52492  53.2166 216.9691 0001393  82.6906 277.4244 15.08832423158323
STARLINK-3883           
1 52493U 22049AU  25075.80394350  .00001090  00000+0  86548-4 0  9995
2 52493  53.2173 215.7284 0001135  86.5489 273.5633 15.08832557158529
STARLINK-3857           
1 52494U 22049AV  25075.58314436 -.00001401  00000+0 -69938-4 0  9990
2 52494  53.2165 216.7193 0001025  88.6955 271.4154 15.08844514158330
